{
  "type": "FeatureCollection",
  "features": [
    {
      "type": "Feature",
      "properties": {
        "norad_id": 66491,
        "name": "STARLINK-35663",
        "group": "last-30-days",
        "lat": -42.04525992705075,
        "lon": 47.33782318665797,
        "alt_km": 415.61604610902396,
        "timestamp": "2025-12-08T03:50:05.783300+00:00",
        "meta_object_name": "STARLINK-35663",
        "meta_object_id": "2025-263G",
        "meta_epoch": "2025-12-07T06:00:04.999968",
        "meta_mean_motion": 15.55003434,
        "meta_eccentricity": 0.00012856,
        "meta_inclination": 43.0001,
        "meta_ra_of_asc_node": 157.2605,
        "meta_arg_of_pericenter": 268.6572,
        "meta_mean_anomaly": 298.4102,
        "meta_ephemeris_type": 0,
        "meta_classification_type": "U",
        "meta_norad_cat_id": 66491,
        "meta_element_set_no": 999,
        "meta_rev_at_epoch": 475,
        "meta_bstar": -0.03407017,
        "meta_mean_motion_dot": -0.02087937,
        "meta_mean_motion_ddot": 0,
        "tle_line1": "1 66491U 25263G   25341.25005787 -.02087937  00000+0 -34070-1 0  9995",
        "tle_line2": "2 66491  43.0001 157.2605 0001285 268.6572 298.4102 15.55003434  4756"
      },
      "geometry": {
        "type": "Point",
        "coordinates": [
          47.33782318665797,
          -42.04525992705075
        ]
      }
    },
    {
      "type": "Feature",
      "properties": {
        "norad_id": 66492,
        "name": "STARLINK-35673",
        "group": "last-30-days",
        "lat": -42.346548471250266,
        "lon": 49.893696786781256,
        "alt_km": 415.54412839786346,
        "timestamp": "2025-12-08T03:50:05.783312+00:00",
        "meta_object_name": "STARLINK-35673",
        "meta_object_id": "2025-263H",
        "meta_epoch": "2025-12-07T06:00:04.999968",
        "meta_mean_motion": 15.55002521,
        "meta_eccentricity": 0.00013819,
        "meta_inclination": 43.0001,
        "meta_ra_of_asc_node": 157.2558,
        "meta_arg_of_pericenter": 269.706,
        "meta_mean_anomaly": 299.2768,
        "meta_ephemeris_type": 0,
        "meta_classification_type": "U",
        "meta_norad_cat_id": 66492,
        "meta_element_set_no": 999,
        "meta_rev_at_epoch": 475,
        "meta_bstar": -0.034009039,
        "meta_mean_motion_dot": -0.02084601,
        "meta_mean_motion_ddot": 0,
        "tle_line1": "1 66492U 25263H   25341.25005787 -.02084601  00000+0 -34009-1 0  9993",
        "tle_line2": "2 66492  43.0001 157.2558 0001381 269.7060 299.2768 15.55002521  4758"
      },
      "geometry": {
        "type": "Point",
        "coordinates": [
          49.893696786781256,
          -42.346548471250266
        ]
      }
    },
    {
      "type": "Feature",
      "properties": {
        "norad_id": 66493,
        "name": "STARLINK-35597",
        "group": "last-30-days",
        "lat": -42.591571740608764,
        "lon": 52.48219661953623,
        "alt_km": 415.592183686078,
        "timestamp": "2025-12-08T03:50:05.783322+00:00",
        "meta_object_name": "STARLINK-35597",
        "meta_object_id": "2025-263J",
        "meta_epoch": "2025-12-07T06:00:04.999968",
        "meta_mean_motion": 15.54994577,
        "meta_eccentricity": 0.00012743,
        "meta_inclination": 43.0004,
        "meta_ra_of_asc_node": 157.2503,
        "meta_arg_of_pericenter": 270.6508,
        "meta_mean_anomaly": 300.254,
        "meta_ephemeris_type": 0,
        "meta_classification_type": "U",
        "meta_norad_cat_id": 66493,
        "meta_element_set_no": 999,
        "meta_rev_at_epoch": 475,
        "meta_bstar": -0.033828492,
        "meta_mean_motion_dot": -0.02074127,
        "meta_mean_motion_ddot": 0,
        "tle_line1": "1 66493U 25263J   25341.25005787 -.02074127  00000+0 -33828-1 0  9994",
        "tle_line2": "2 66493  43.0004 157.2503 0001274 270.6508 300.2540 15.54994577  4752"
      },
      "geometry": {
        "type": "Point",
        "coordinates": [
          52.48219661953623,
          -42.591571740608764
        ]
      }
    },
    {
      "type": "Feature",
      "properties": {
        "norad_id": 66494,
        "name": "STARLINK-35689",
        "group": "last-30-days",
        "lat": -41.69314011426798,
        "lon": 44.84457347129551,
        "alt_km": 415.56822795061544,
        "timestamp": "2025-12-08T03:50:05.783332+00:00",
        "meta_object_name": "STARLINK-35689",
        "meta_object_id": "2025-263K",
        "meta_epoch": "2025-12-07T06:00:04.999968",
        "meta_mean_motion": 15.54996879,
        "meta_eccentricity": 0.00012255,
        "meta_inclination": 43.0001,
        "meta_ra_of_asc_node": 157.2654,
        "meta_arg_of_pericenter": 255.4558,
        "meta_mean_anomaly": 309.6965,
        "meta_ephemeris_type": 0,
        "meta_classification_type": "U",
        "meta_norad_cat_id": 66494,
        "meta_element_set_no": 999,
        "meta_rev_at_epoch": 475,
        "meta_bstar": -0.033898333,
        "meta_mean_motion_dot": -0.02078069,
        "meta_mean_motion_ddot": 0,
        "tle_line1": "1 66494U 25263K   25341.25005787 -.02078069  00000+0 -33898-1 0  9991",
        "tle_line2": "2 66494  43.0001 157.2654 0001225 255.4558 309.6965 15.54996879  4750"
      },
      "geometry": {
        "type": "Point",
        "coordinates": [
          44.84457347129551,
          -41.69314011426798
        ]
      }
    },
    {
      "type": "Feature",
      "properties": {
        "norad_id": 66495,
        "name": "STARLINK-35832",
        "group": "last-30-days",
        "lat": -42.77605142012633,
        "lon": 55.06620313023192,
        "alt_km": 415.52912853122143,
        "timestamp": "2025-12-08T03:50:05.783344+00:00",
        "meta_object_name": "STARLINK-35832",
        "meta_object_id": "2025-263L",
        "meta_epoch": "2025-12-07T06:00:04.999968",
        "meta_mean_motion": 15.54998928,
        "meta_eccentricity": 0.00013481,
        "meta_inclination": 43.0005,
        "meta_ra_of_asc_node": 157.2459,
        "meta_arg_of_pericenter": 264.5498,
        "meta_mean_anomaly": 308.2696,
        "meta_ephemeris_type": 0,
        "meta_classification_type": "U",
        "meta_norad_cat_id": 66495,
        "meta_element_set_no": 999,
        "meta_rev_at_epoch": 475,
        "meta_bstar": -0.033920242,
        "meta_mean_motion_dot": -0.02079484,
        "meta_mean_motion_ddot": 0,
        "tle_line1": "1 66495U 25263L   25341.25005787 -.02079484  00000+0 -33920-1 0  9990",
        "tle_line2": "2 66495  43.0005 157.2459 0001348 264.5498 308.2696 15.54998928  4751"
      },
      "geometry": {
        "type": "Point",
        "coordinates": [
          55.06620313023192,
          -42.77605142012633
        ]
      }
    },
    {
      "type": "Feature",
      "properties": {
        "norad_id": 66496,
        "name": "STARLINK-35909",
        "group": "last-30-days",
        "lat": -42.901820376064144,
        "lon": 57.673085264044644,
        "alt_km": 415.589348616164,
        "timestamp": "2025-12-08T03:50:05.783354+00:00",
        "meta_object_name": "STARLINK-35909",
        "meta_object_id": "2025-263M",
        "meta_epoch": "2025-12-07T06:00:04.999968",
        "meta_mean_motion": 15.54995942,
        "meta_eccentricity": 0.00012661,
        "meta_inclination": 43.0001,
        "meta_ra_of_asc_node": 157.2409,
        "meta_arg_of_pericenter": 269.5422,
        "meta_mean_anomaly": 305.1957,
        "meta_ephemeris_type": 0,
        "meta_classification_type": "U",
        "meta_norad_cat_id": 66496,
        "meta_element_set_no": 999,
        "meta_rev_at_epoch": 475,
        "meta_bstar": -0.033840874,
        "meta_mean_motion_dot": -0.02074892,
        "meta_mean_motion_ddot": 0,
        "tle_line1": "1 66496U 25263M   25341.25005787 -.02074892  00000+0 -33841-1 0  9991",
        "tle_line2": "2 66496  43.0001 157.2409 0001266 269.5422 305.1957 15.54995942  4753"
      },
      "geometry": {
        "type": "Point",
        "coordinates": [
          57.673085264044644,
          -42.901820376064144
        ]
      }
    },
    {
      "type": "Feature",
      "properties": {
        "norad_id": 66497,
        "name": "STARLINK-35899",
        "group": "last-30-days",
        "lat": -42.968073604553126,
        "lon": 60.24988630271631,
        "alt_km": 415.479640216653,
        "timestamp": "2025-12-08T03:50:05.783365+00:00",
        "meta_object_name": "STARLINK-35899",
        "meta_object_id": "2025-263N",
        "meta_epoch": "2025-12-07T06:00:04.999968",
        "meta_mean_motion": 15.5500322,
        "meta_eccentricity": 0.00014968,
        "meta_inclination": 43.0003,
        "meta_ra_of_asc_node": 157.2354,
        "meta_arg_of_pericenter": 271.6398,
        "meta_mean_anomaly": 305.0127,
        "meta_ephemeris_type": 0,
        "meta_classification_type": "U",
        "meta_norad_cat_id": 66497,
        "meta_element_set_no": 999,
        "meta_rev_at_epoch": 475,
        "meta_bstar": -0.034060756,
        "meta_mean_motion_dot": -0.02087547,
        "meta_mean_motion_ddot": 0,
        "tle_line1": "1 66497U 25263N   25341.25005787 -.02087547  00000+0 -34061-1 0  9998",
        "tle_line2": "2 66497  43.0003 157.2354 0001496 271.6398 305.0127 15.55003220  4754"
      },
      "geometry": {
        "type": "Point",
        "coordinates": [
          60.24988630271631,
          -42.968073604553126
        ]
      }
    }
  ]
}